<?xml version="1.0" encoding="UTF-8"?>
<ndm xmlns:xsi="http://www.w3.org/2001/XMLSchema-instance" xsi:noNamespaceSchemaLocation="https://sanaregistry.org/r/ndmxml_unqualified/ndmxml-2.0.0-master-2.0.xsd">
<omm id="CCSDS_OMM_VERS" version="2.0">
<header><CREATION_DATE/><ORIGINATOR/></header><body><segment><metadata><OBJECT_NAME>IRIDIUM 116</OBJECT_NAME><OBJECT_ID>2017-083C</OBJECT_ID><CENTER_NAME>EARTH</CENTER_NAME><REF_FRAME>TEME</REF_FRAME><TIME_SYSTEM>UTC</TIME_SYSTEM><MEAN_ELEMENT_THEORY>SGP4</MEAN_ELEMENT_THEORY></metadata><data><meanElements><EPOCH>2024-10-23T12:45:02.667168</EPOCH><MEAN_MOTION>14.34221965</MEAN_MOTION><ECCENTRICITY>.0002211</ECCENTRICITY><INCLINATION>86.4019</INCLINATION><RA_OF_ASC_NODE>213.4179</RA_OF_ASC_NODE><ARG_OF_PERICENTER>81.1244</ARG_OF_PERICENTER><MEAN_ANOMALY>279.0202</MEAN_ANOMALY></meanElements><tleParameters><EPHEMERIS_TYPE>0</EPHEMERIS_TYPE><CLASSIFICATION_TYPE>U</CLASSIFICATION_TYPE><NORAD_CAT_ID>43072</NORAD_CAT_ID><ELEMENT_SET_NO>999</ELEMENT_SET_NO><REV_AT_EPOCH>35793</REV_AT_EPOCH><BSTAR>.16176E-3</BSTAR><MEAN_MOTION_DOT>.473E-5</MEAN_MOTION_DOT><MEAN_MOTION_DDOT>0</MEAN_MOTION_DDOT></tleParameters></data></segment></body></omm>
<omm id="CCSDS_OMM_VERS" version="2.0">
<header><CREATION_DATE/><ORIGINATOR/></header><body><segment><metadata><OBJECT_NAME>IRIDIUM 130</OBJECT_NAME><OBJECT_ID>2017-083D</OBJECT_ID><CENTER_NAME>EARTH</CENTER_NAME><REF_FRAME>TEME</REF_FRAME><TIME_SYSTEM>UTC</TIME_SYSTEM><MEAN_ELEMENT_THEORY>SGP4</MEAN_ELEMENT_THEORY></metadata><data><meanElements><EPOCH>2024-10-23T06:57:58.902048</EPOCH><MEAN_MOTION>14.34214306</MEAN_MOTION><ECCENTRICITY>.0002679</ECCENTRICITY><INCLINATION>86.4035</INCLINATION><RA_OF_ASC_NODE>213.7339</RA_OF_ASC_NODE><ARG_OF_PERICENTER>80.7682</ARG_OF_PERICENTER><MEAN_ANOMALY>279.3817</MEAN_ANOMALY></meanElements><tleParameters><EPHEMERIS_TYPE>0</EPHEMERIS_TYPE><CLASSIFICATION_TYPE>U</CLASSIFICATION_TYPE><NORAD_CAT_ID>43073</NORAD_CAT_ID><ELEMENT_SET_NO>999</ELEMENT_SET_NO><REV_AT_EPOCH>35784</REV_AT_EPOCH><BSTAR>.17039E-3</BSTAR><MEAN_MOTION_DOT>.497E-5</MEAN_MOTION_DOT><MEAN_MOTION_DDOT>0</MEAN_MOTION_DDOT></tleParameters></data></segment></body></omm>
<omm id="CCSDS_OMM_VERS" version="2.0">
<header><CREATION_DATE/><ORIGINATOR/></header><body><segment><metadata><OBJECT_NAME>IRIDIUM 151</OBJECT_NAME><OBJECT_ID>2017-083E</OBJECT_ID><CENTER_NAME>EARTH</CENTER_NAME><REF_FRAME>TEME</REF_FRAME><TIME_SYSTEM>UTC</TIME_SYSTEM><MEAN_ELEMENT_THEORY>SGP4</MEAN_ELEMENT_THEORY></metadata><data><meanElements><EPOCH>2024-10-23T06:21:26.546112</EPOCH><MEAN_MOTION>14.34222440</MEAN_MOTION><ECCENTRICITY>.0002099</ECCENTRICITY><INCLINATION>86.4021</INCLINATION><RA_OF_ASC_NODE>213.5731</RA_OF_ASC_NODE><ARG_OF_PERICENTER>80.9202</ARG_OF_PERICENTER><MEAN_ANOMALY>279.2231</MEAN_ANOMALY></meanElements><tleParameters><EPHEMERIS_TYPE>0</EPHEMERIS_TYPE><CLASSIFICATION_TYPE>U</CLASSIFICATION_TYPE><NORAD_CAT_ID>43074</NORAD_CAT_ID><ELEMENT_SET_NO>999</ELEMENT_SET_NO><REV_AT_EPOCH>35786</REV_AT_EPOCH><BSTAR>.2447E-3</BSTAR><MEAN_MOTION_DOT>.705E-5</MEAN_MOTION_DOT><MEAN_MOTION_DDOT>0</MEAN_MOTION_DDOT></tleParameters></data></segment></body></omm>
<omm id="CCSDS_OMM_VERS" version="2.0">
<header><CREATION_DATE/><ORIGINATOR/></header><body><segment><metadata><OBJECT_NAME>IRIDIUM 134</OBJECT_NAME><OBJECT_ID>2017-083F</OBJECT_ID><CENTER_NAME>EARTH</CENTER_NAME><REF_FRAME>TEME</REF_FRAME><TIME_SYSTEM>UTC</TIME_SYSTEM><MEAN_ELEMENT_THEORY>SGP4</MEAN_ELEMENT_THEORY></metadata><data><meanElements><EPOCH>2024-10-23T12:17:40.964352</EPOCH><MEAN_MOTION>14.34220504</MEAN_MOTION><ECCENTRICITY>.0002346</ECCENTRICITY><INCLINATION>86.4024</INCLINATION><RA_OF_ASC_NODE>213.4696</RA_OF_ASC_NODE><ARG_OF_PERICENTER>82.5370</ARG_OF_PERICENTER><MEAN_ANOMALY>277.6092</MEAN_ANOMALY></meanElements><tleParameters><EPHEMERIS_TYPE>0</EPHEMERIS_TYPE><CLASSIFICATION_TYPE>U</CLASSIFICATION_TYPE><NORAD_CAT_ID>43075</NORAD_CAT_ID><ELEMENT_SET_NO>999</ELEMENT_SET_NO><REV_AT_EPOCH>35786</REV_AT_EPOCH><BSTAR>.25967E-3</BSTAR><MEAN_MOTION_DOT>.747E-5</MEAN_MOTION_DOT><MEAN_MOTION_DDOT>0</MEAN_MOTION_DDOT></tleParameters></data></segment></body></omm>
<omm id="CCSDS_OMM_VERS" version="2.0">
<header><CREATION_DATE/><ORIGINATOR/></header><body><segment><metadata><OBJECT_NAME>IRIDIUM 137</OBJECT_NAME><OBJECT_ID>2017-083G</OBJECT_ID><CENTER_NAME>EARTH</CENTER_NAME><REF_FRAME>TEME</REF_FRAME><TIME_SYSTEM>UTC</TIME_SYSTEM><MEAN_ELEMENT_THEORY>SGP4</MEAN_ELEMENT_THEORY></metadata><data><meanElements><EPOCH>2024-10-23T07:34:31.003104</EPOCH><MEAN_MOTION>14.34215594</MEAN_MOTION><ECCENTRICITY>.0002866</ECCENTRICITY><INCLINATION>86.4023</INCLINATION><RA_OF_ASC_NODE>213.6320</RA_OF_ASC_NODE><ARG_OF_PERICENTER>64.3113</ARG_OF_PERICENTER><MEAN_ANOMALY>295.8379</MEAN_ANOMALY></meanElements><tleParameters><EPHEMERIS_TYPE>0</EPHEMERIS_TYPE><CLASSIFICATION_TYPE>U</CLASSIFICATION_TYPE><NORAD_CAT_ID>43076</NORAD_CAT_ID><ELEMENT_SET_NO>999</ELEMENT_SET_NO><REV_AT_EPOCH>35790</REV_AT_EPOCH><BSTAR>.22511E-3</BSTAR><MEAN_MOTION_DOT>.65E-5</MEAN_MOTION_DOT><MEAN_MOTION_DDOT>0</MEAN_MOTION_DDOT></tleParameters></data></segment></body></omm>
<omm id="CCSDS_OMM_VERS" version="2.0">
<header><CREATION_DATE/><ORIGINATOR/></header><body><segment><metadata><OBJECT_NAME>IRIDIUM 141</OBJECT_NAME><OBJECT_ID>2017-083H</OBJECT_ID><CENTER_NAME>EARTH</CENTER_NAME><REF_FRAME>TEME</REF_FRAME><TIME_SYSTEM>UTC</TIME_SYSTEM><MEAN_ELEMENT_THEORY>SGP4</MEAN_ELEMENT_THEORY></metadata><data><meanElements><EPOCH>2024-10-23T12:26:47.264640</EPOCH><MEAN_MOTION>14.34216732</MEAN_MOTION><ECCENTRICITY>.000218</ECCENTRICITY><INCLINATION>86.4023</INCLINATION><RA_OF_ASC_NODE>213.4124</RA_OF_ASC_NODE><ARG_OF_PERICENTER>86.5104</ARG_OF_PERICENTER><MEAN_ANOMALY>273.6341</MEAN_ANOMALY></meanElements><tleParameters><EPHEMERIS_TYPE>0</EPHEMERIS_TYPE><CLASSIFICATION_TYPE>U</CLASSIFICATION_TYPE><NORAD_CAT_ID>43077</NORAD_CAT_ID><ELEMENT_SET_NO>999</ELEMENT_SET_NO><REV_AT_EPOCH>35793</REV_AT_EPOCH><BSTAR>-.38226E-4</BSTAR><MEAN_MOTION_DOT>-.87E-6</MEAN_MOTION_DOT><MEAN_MOTION_DDOT>0</MEAN_MOTION_DDOT></tleParameters></data></segment></body></omm>
<omm id="CCSDS_OMM_VERS" version="2.0">
<header><CREATION_DATE/><ORIGINATOR/></header><body><segment><metadata><OBJECT_NAME>IRIDIUM 153</OBJECT_NAME><OBJECT_ID>2017-083J</OBJECT_ID><CENTER_NAME>EARTH</CENTER_NAME><REF_FRAME>TEME</REF_FRAME><TIME_SYSTEM>UTC</TIME_SYSTEM><MEAN_ELEMENT_THEORY>SGP4</MEAN_ELEMENT_THEORY></metadata><data><meanElements><EPOCH>2024-10-23T14:38:51.380160</EPOCH><MEAN_MOTION>14.34217402</MEAN_MOTION><ECCENTRICITY>.0001694</ECCENTRICITY><INCLINATION>86.4029</INCLINATION><RA_OF_ASC_NODE>181.9052</RA_OF_ASC_NODE><ARG_OF_PERICENTER>99.8401</ARG_OF_PERICENTER><MEAN_ANOMALY>260.2986</MEAN_ANOMALY></meanElements><tleParameters><EPHEMERIS_TYPE>0</EPHEMERIS_TYPE><CLASSIFICATION_TYPE>U</CLASSIFICATION_TYPE><NORAD_CAT_ID>43078</NORAD_CAT_ID><ELEMENT_SET_NO>999</ELEMENT_SET_NO><REV_AT_EPOCH>35905</REV_AT_EPOCH><BSTAR>.12438E-3</BSTAR><MEAN_MOTION_DOT>.368E-5</MEAN_MOTION_DOT><MEAN_MOTION_DDOT>0</MEAN_MOTION_DDOT></tleParameters></data></segment></body></omm>
<omm id="CCSDS_OMM_VERS" version="2.0">
<header><CREATION_DATE/><ORIGINATOR/></header><body><segment><metadata><OBJECT_NAME>IRIDIUM 131</OBJECT_NAME><OBJECT_ID>2017-083K</OBJECT_ID><CENTER_NAME>EARTH</CENTER_NAME><REF_FRAME>TEME</REF_FRAME><TIME_SYSTEM>UTC</TIME_SYSTEM><MEAN_ELEMENT_THEORY>SGP4</MEAN_ELEMENT_THEORY></metadata><data><meanElements><EPOCH>2024-10-23T07:07:07.011552</EPOCH><MEAN_MOTION>14.34224355</MEAN_MOTION><ECCENTRICITY>.0002073</ECCENTRICITY><INCLINATION>86.4027</INCLINATION><RA_OF_ASC_NODE>213.6506</RA_OF_ASC_NODE><ARG_OF_PERICENTER>83.4742</ARG_OF_PERICENTER><MEAN_ANOMALY>276.6690</MEAN_ANOMALY></meanElements><tleParameters><EPHEMERIS_TYPE>0</EPHEMERIS_TYPE><CLASSIFICATION_TYPE>U</CLASSIFICATION_TYPE><NORAD_CAT_ID>43079</NORAD_CAT_ID><ELEMENT_SET_NO>999</ELEMENT_SET_NO><REV_AT_EPOCH>35783</REV_AT_EPOCH><BSTAR>.22908E-3</BSTAR><MEAN_MOTION_DOT>.661E-5</MEAN_MOTION_DOT><MEAN_MOTION_DDOT>0</MEAN_MOTION_DDOT></tleParameters></data></segment></body></omm>

</ndm>
