IRIDIUM 116             
1 43072U 17083C   24297.53128087  .00000473  00000+0  16176-3 0  9990
2 43072  86.4019 213.4179 0002211  81.1244 279.0202 14.34221965357935
IRIDIUM 130             
1 43073U 17083D   24297.29026507  .00000497  00000+0  17039-3 0  9993
2 43073  86.4035 213.7339 0002679  80.7682 279.3817 14.34214306357840
IRIDIUM 151             
1 43074U 17083E   24297.26489058  .00000705  00000+0  24470-3 0  9994
2 43074  86.4021 213.5731 0002099  80.9202 279.2231 14.34222440357865
IRIDIUM 134             
1 43075U 17083F   24297.51227968  .00000747  00000+0  25967-3 0  9991
2 43075  86.4024 213.4696 0002346  82.5370 277.6092 14.34220504357863
IRIDIUM 137             
1 43076U 17083G   24297.31563661  .00000650  00000+0  22511-3 0  9998
2 43076  86.4023 213.6320 0002866  64.3113 295.8379 14.34215594357907
IRIDIUM 141             
1 43077U 17083H   24297.51860260 -.00000087  00000+0 -38226-4 0  9993
2 43077  86.4023 213.4124 0002180  86.5104 273.6341 14.34216732357934
IRIDIUM 153             
1 43078U 17083J   24297.61031690  .00000368  00000+0  12438-3 0  9998
2 43078  86.4029 181.9052 0001694  99.8401 260.2986 14.34217402359053
IRIDIUM 131             
1 43079U 17083K   24297.29660893  .00000661  00000+0  22908-3 0  9995
2 43079  86.4027 213.6506 0002073  83.4742 276.6690 14.34224355357830
